ORBCOMM FM05            
1 25117U 97084F   25356.51652670  .00001228  00000+0  37611-3 0  9990
2 25117  45.0129 183.3198 0002767  98.0696 262.0470 14.46734175467877
ORBCOMM FM06            
1 25118U 97084G   25356.83728461  .00001097  00000+0  33894-3 0  9991
2 25118  45.0120 181.2885 0001712 107.8853 266.6544 14.46897276468844
ORBCOMM FM07            
1 25119U 97084H   25356.50156764  .00001173  00000+0  35980-3 0  9990
2 25119  45.0118 183.6519 0003528  92.0819 268.0437 14.46908606468786
ORBCOMM FM03            
1 25158U 98007B   25356.44606879  .00001155  00000+0  44538-3 0  9998
2 25158 107.9647 162.4533 0046821 278.4998  81.0837 14.35049999451043
ORBCOMM FM04            
1 25159U 98007C   25356.39812522  .00001094  00000+0  42321-3 0  9997
2 25159 107.9639 165.7041 0042626 275.9591  83.6692 14.35296059451223
ORBCOMM FM17            
1 25413U 98046A   25356.54024364  .00000819  00000+0  33033-3 0  9993
2 25413  44.9939  88.3868 0001695 120.8015 239.2999 14.35556752430232
ORBCOMM FM18            
1 25414U 98046B   25356.16841238  .00001065  00000+0  38628-3 0  9998
2 25414  44.9941   2.4185 0003598 181.2545 178.8295 14.39177968431328
ORBCOMM FM19            
1 25415U 98046C   25356.07654064  .00001113  00000+0  40320-3 0  9994
2 25415  44.9954   5.1419 0002434 188.9418 204.1132 14.38997931431269
